NORAD_CAT_ID,OBJECT_NAME,OBJECT_TYPE,EPOCH,MEAN_MOTION,ECCENTRICITY,INCLINATION,RA_OF_ASC_NODE,ARG_OF_PERICENTER,MEAN_ANOMALY,BSTAR,MEAN_MOTION_DOT,MEAN_MOTION_DDOT,TLE_LINE0,TLE_LINE1,TLE_LINE2,SEMIMAJOR_AXIS,PERIOD,APOGEE,PERIGEE,DECAYED
52657.0,STARLINK-4084,PAYLOAD,2024-02-05 13:51:05,15.08842128,0.0001354,53.2174,340.1855,81.4495,278.6651,0.00014146,1.964e-05,0.0,0 STARLINK-4084,1 52657U 22053B   24036.57715037  .00001964  00000-0  14146-3 0  9996,2 52657  53.2174 340.1855 0001354  81.4495 278.6651 15.08842128 96200,6917.874,95.437,540.676,538.802,0.0
52657.0,STARLINK-4084,PAYLOAD,2024-02-06 05:44:57,15.08846805,0.0001652,53.2195,337.2085,103.6406,256.477,6.3807e-06,-1.86e-06,0.0,0 STARLINK-4084,1 52657U 22053B   24037.23955148 -.00000186  00000-0  63807-5 0  9995,2 52657  53.2195 337.2085 0001652 103.6406 256.4770 15.08846805 96308,6917.86,95.437,540.867,538.582,0.0
52657.0,STARLINK-4084,PAYLOAD,2024-02-07 04:00:20,15.08851746,0.0001638,53.2194,333.0444,114.3468,245.7696,3.6992e-05,3.01e-06,0.0,0 STARLINK-4084,1 52657U 22053B   24038.16690551  .00000301  00000-0  36992-4 0  9994,2 52657  53.2194 333.0444 0001638 114.3468 245.7696 15.08851746 96444,6917.844,95.437,540.843,538.576,0.0
52657.0,STARLINK-4084,PAYLOAD,2024-02-07 05:35:43,15.08852074,0.0001636,53.2193,332.7468,115.2055,244.9107,4.1791e-05,3.77e-06,0.0,0 STARLINK-4084,1 52657U 22053B   24038.23314493  .00000377  00000-0  41791-4 0  9996,2 52657  53.2193 332.7468 0001636 115.2055 244.9107 15.08852074 96459,6917.843,95.437,540.84,538.577,0.0
52657.0,STARLINK-4084,PAYLOAD,2024-02-08 03:51:09,15.08833515,0.0001436,53.2191,328.585,90.8017,269.3139,-4.1525e-06,-3.54e-06,0.0,0 STARLINK-4084,1 52657U 22053B   24039.16052409 -.00000354  00000-0 -41525-5 0  9998,2 52657  53.2191 328.5850 0001436  90.8017 269.3139 15.08833515 96599,6917.9,95.438,540.759,538.772,0.0
52657.0,STARLINK-4084,PAYLOAD,2024-02-08 05:26:32,15.0883437,0.0001432,53.219,328.2877,91.6169,268.4987,4.7115e-06,-2.13e-06,0.0,0 STARLINK-4084,1 52657U 22053B   24039.22676413 -.00000213  00000-0  47115-5 0  9996,2 52657  53.2190 328.2877 0001432  91.6169 268.4987 15.08834370 96600,6917.898,95.438,540.753,538.772,0.0
52657.0,STARLINK-4084,PAYLOAD,2024-02-08 22:55:46,15.08840894,0.0001326,53.2186,325.0172,88.8268,271.2876,9.3753e-06,-1.39e-06,0.0,0 STARLINK-4084,1 52657U 22053B   24039.95540277 -.00000139  00000-0  93753-5 0  9990,2 52657  53.2186 325.0172 0001326  88.8268 271.2876 15.08840894 96717,6917.878,95.437,540.66,538.825,0.0
52657.0,STARLINK-4084,PAYLOAD,2024-02-09 03:41:54,15.08854816,0.0001521,53.2187,324.1232,110.9077,249.2078,0.00015119,2.12e-05,0.0,0 STARLINK-4084,1 52657U 22053B   24040.15410820  .00002120  00000-0  15119-3 0  9993,2 52657  53.2187 324.1232 0001521 110.9077 249.2078 15.08854816 96748,6917.835,95.437,540.752,538.648,0.0
52657.0,STARLINK-4084,PAYLOAD,2024-02-09 18:00:25,15.0882896,0.000158,53.2189,321.4495,85.0505,275.0668,0.00014126,1.96e-05,0.0,0 STARLINK-4084,1 52657U 22053B   24040.75029100  .00001960  00000-0  14126-3 0  9994,2 52657  53.2189 321.4495 0001580  85.0505 275.0668 15.08828960 96837,6917.914,95.438,540.872,538.686,0.0
52657.0,STARLINK-4084,PAYLOAD,2024-02-10 05:08:06,15.08837937,0.0001471,53.219,319.3679,81.1846,278.9313,0.00012026,1.626e-05,0.0,0 STARLINK-4084,1 52657U 22053B   24041.21396941  .00001626  00000-0  12026-3 0  9992,2 52657  53.2190 319.3679 0001471  81.1846 278.9313 15.08837937 96904,6917.887,95.438,540.769,538.734,0.0
52657.0,STARLINK-4084,PAYLOAD,2024-02-10 19:26:35,15.08835529,0.0001776,53.2178,316.6924,113.3329,246.785,0.0002268,3.323e-05,0.0,0 STARLINK-4084,1 52657U 22053B   24041.81013001  .00003323  00000-0  22680-3 0  9994,2 52657  53.2178 316.6924 0001776 113.3329 246.7850 15.08835529 96998,6917.894,95.438,540.988,538.53,0.0
52657.0,STARLINK-4084,PAYLOAD,2024-02-10 22:37:21,15.08848511,0.0001438,53.2181,316.0979,99.149,260.9665,9.8877e-05,1.286e-05,0.0,0 STARLINK-4084,1 52657U 22053B   24041.94260452  .00001286  00000-0  98877-4 0  9990,2 52657  53.2181 316.0979 0001438  99.1490 260.9665 15.08848511 97012,6917.854,95.437,540.714,538.725,0.0
52657.0,STARLINK-4084,PAYLOAD,2024-02-11 03:23:29,15.08858877,0.0001433,53.2175,315.2055,88.7614,271.3542,0.00022777,3.341e-05,0.0,0 STARLINK-4084,1 52657U 22053B   24042.14131807  .00003341  00000-0  22777-3 0  9993,2 52657  53.2175 315.2055 0001433  88.7614 271.3542 15.08858877 97047,6917.823,95.436,540.679,538.696,0.0
52657.0,STARLINK-4084,PAYLOAD,2024-02-11 17:41:59,15.08838511,0.0001563,53.2177,312.5294,88.781,271.3361,0.0001112,1.482e-05,0.0,0 STARLINK-4084,1 52657U 22053B   24042.73749017  .00001482  00000-0  11120-3 0  9990,2 52657  53.2177 312.5294 0001563  88.7810 271.3361 15.08838511 97138,6917.885,95.438,540.831,538.669,0.0
52657.0,STARLINK-4084,PAYLOAD,2024-02-12 03:14:17,15.0884332,0.000174,53.2178,310.7473,80.4194,279.6995,0.00018502,2.658e-05,0.0,0 STARLINK-4084,1 52657U 22053B   24043.13492736  .00002658  00000-0  18502-3 0  9995,2 52657  53.2178 310.7473 0001740  80.4194 279.6995 15.08843320 97193,6917.87,95.437,540.939,538.532,0.0
52657.0,STARLINK-4084,PAYLOAD,2024-02-12 22:18:55,15.08844006,0.00015,53.217,307.1774,81.2816,278.8346,5.2597e-05,5.49e-06,0.0,0 STARLINK-4084,1 52657U 22053B   24043.92980553  .00000549  00000-0  52597-4 0  9991,2 52657  53.2170 307.1774 0001500  81.2816 278.8346 15.08844006 97310,6917.868,95.437,540.771,538.695,0.0
52657.0,STARLINK-4084,PAYLOAD,2024-02-13 03:05:04,15.08851019,0.0001479,53.2153,306.2843,95.2454,264.8707,0.00019715,2.852e-05,0.0,0 STARLINK-4084,1 52657U 22053B   24044.12852185  .00002852  00000-0  19715-3 0  9996,2 52657  53.2153 306.2843 0001479  95.2454 264.8707 15.08851019 97347,6917.847,95.437,540.735,538.689,0.0
52657.0,STARLINK-4084,PAYLOAD,2024-02-13 11:02:00,15.08845933,0.0001247,53.2166,304.7968,94.0552,266.0583,0.00016504,2.34e-05,0.0,0 STARLINK-4084,1 52657U 22053B   24044.45972343  .00002340  00000-0  16504-3 0  9996,2 52657  53.2166 304.7968 0001247  94.0552 266.0583 15.08845933 97390,6917.862,95.437,540.59,538.865,0.0
52657.0,STARLINK-4084,PAYLOAD,2024-02-13 17:23:32,15.08841957,0.0001401,53.2166,303.6072,97.1405,262.9747,2.5523e-05,1.18e-06,0.0,0 STARLINK-4084,1 52657U 22053B   24044.72468563  .00000118  00000-0  25523-4 0  9993,2 52657  53.2166 303.6072 0001401  97.1405 262.9747 15.08841957 97431,6917.874,95.437,540.709,538.77,0.0
52657.0,STARLINK-4084,PAYLOAD,2024-02-13 22:09:42,15.08844791,0.000154,53.2159,302.7137,110.9064,249.2093,0.00010157,1.329e-05,0.0,0 STARLINK-4084,1 52657U 22053B   24044.92340362  .00001329  00000-0  10157-3 0  9992,2 52657  53.2159 302.7137 0001540 110.9064 249.2093 15.08844791 97468,6917.866,95.437,540.796,538.665,0.0
52657.0,STARLINK-4084,PAYLOAD,2024-02-14 02:55:51,15.0885017,0.000124,53.216,301.8227,89.6614,270.452,0.00024263,3.577e-05,0.0,0 STARLINK-4084,1 52657U 22053B   24045.12212227  .00003577  00000-0  24263-3 0  9993,2 52657  53.2160 301.8227 0001240  89.6614 270.4520 15.08850170 97492,6917.849,95.437,540.572,538.856,0.0
52657.0,STARLINK-4084,PAYLOAD,2024-02-14 17:14:20,15.08836796,0.0001039,53.2161,299.1469,102.3925,257.7184,-3.7287e-05,-8.81e-06,0.0,0 STARLINK-4084,1 52657U 22053B   24045.71828853 -.00000881  00000-0 -37287-4 0  9994,2 52657  53.2161 299.1469 0001039 102.3925 257.7184 15.08836796 97586,6917.89,95.438,540.474,539.036,0.0
52657.0,STARLINK-4084,PAYLOAD,2024-02-14 22:00:29,15.08840817,0.0001312,53.2159,298.2546,108.0524,252.0611,7.269e-05,8.69e-06,0.0,0 STARLINK-4084,1 52657U 22053B   24045.91700759  .00000869  00000-0  72690-4 0  9991,2 52657  53.2159 298.2546 0001312 108.0524 252.0611 15.08840817 97617,6917.878,95.438,540.651,538.835,0.0
52657.0,STARLINK-4084,PAYLOAD,2024-02-15 02:46:38,15.08843602,0.0001176,53.2158,297.363,96.4856,263.627,0.00026622,3.952e-05,0.0,0 STARLINK-4084,1 52657U 22053B   24046.11572795  .00003952  00000-0  26622-3 0  9990,2 52657  53.2158 297.3630 0001176  96.4856 263.6270 15.08843602 97643,6917.869,95.437,540.548,538.921,0.0
52657.0,STARLINK-4084,PAYLOAD,2024-02-15 21:51:16,15.08835567,0.0001346,53.2147,293.794,95.3677,264.7469,0.00010383,1.365e-05,0.0,0 STARLINK-4084,1 52657U 22053B   24046.91061318  .00001365  00000-0  10383-3 0  9995,2 52657  53.2147 293.7940 0001346  95.3677 264.7469 15.08835567 97769,6917.894,95.438,540.69,538.828,0.0
52657.0,STARLINK-4084,PAYLOAD,2024-02-16 02:37:26,15.08840546,0.0001254,53.2157,292.9024,91.5402,268.5734,0.00025763,3.815e-05,0.0,0 STARLINK-4084,1 52657U 22053B   24047.10933333  .00003815  00000-0  25763-3 0  9992,2 52657  53.2157 292.9024 0001254  91.5402 268.5734 15.08840546 97799,6917.879,95.438,540.611,538.876,0.0
52657.0,STARLINK-4084,PAYLOAD,2024-02-16 08:58:59,15.08840214,0.0001258,53.2155,291.713,92.4218,267.6918,0.00028818,4.301e-05,0.0,0 STARLINK-4084,1 52657U 22053B   24047.37429451  .00004301  00000-0  28818-3 0  9997,2 52657  53.2155 291.7130 0001258  92.4218 267.6918 15.08840214 97832,6917.88,95.438,540.615,538.874,0.0
52657.0,STARLINK-4084,PAYLOAD,2024-02-16 20:06:41,15.08835046,0.0001429,53.2163,289.6329,97.3396,262.7759,9.3239e-05,1.196e-05,0.0,0 STARLINK-4084,1 52657U 22053B   24047.83797819  .00001196  00000-0  93239-4 0  9993,2 52657  53.2163 289.6329 0001429  97.3396 262.7759 15.08835046 97902,6917.896,95.438,540.749,538.772,0.0
52657.0,STARLINK-4084,PAYLOAD,2024-02-16 21:42:04,15.08835912,0.0001433,53.2164,289.3357,99.376,260.7395,0.00010198,1.335e-05,0.0,0 STARLINK-4084,1 52657U 22053B   24047.90421834  .00001335  00000-0  10198-3 0  9999,2 52657  53.2164 289.3357 0001433  99.3760 260.7395 15.08835912 97910,6917.893,95.438,540.749,538.767,0.0
52657.0,STARLINK-4084,PAYLOAD,2024-02-17 15:11:18,15.08843592,0.0001433,53.2165,286.066,91.9307,268.1849,0.00026319,3.904e-05,0.0,0 STARLINK-4084,1 52657U 22053B   24048.63285732  .00003904  00000-0  26319-3 0  9991,2 52657  53.2165 286.0660 0001433  91.9307 268.1849 15.08843592 98029,6917.869,95.437,540.726,538.743,0.0
